CCSDS_OMM_VERS = 2.0
CREATION_DATE  = 
ORIGINATOR     = 

OBJECT_NAME    = TITAN 4B R/B
OBJECT_ID      = 2000-047B
CENTER_NAME    = EARTH
REF_FRAME      = TEME
TIME_SYSTEM    = UTC
MEAN_ELEMENT_THEORY = SGP/SGP4

EPOCH          = 2025-11-08T19:08:01.349376
MEAN_MOTION    = 15.08410704
ECCENTRICITY   = .0042285
INCLINATION    = 67.9916
RA_OF_ASC_NODE = 20.1579
ARG_OF_PERICENTER = 184.1354
MEAN_ANOMALY   = 175.9452

EPHEMERIS_TYPE = 0
CLASSIFICATION_TYPE = U
NORAD_CAT_ID   = 26474
ELEMENT_SET_NO = 999
REV_AT_EPOCH   = 37467
BSTAR          = .43342E-3
MEAN_MOTION_DOT = .6771E-4
MEAN_MOTION_DDOT = 0

CCSDS_OMM_VERS = 2.0
CREATION_DATE  = 
ORIGINATOR     = 

OBJECT_NAME    = ENVISAT
OBJECT_ID      = 2002-009A
CENTER_NAME    = EARTH
REF_FRAME      = TEME
TIME_SYSTEM    = UTC
MEAN_ELEMENT_THEORY = SGP/SGP4

EPOCH          = 2025-11-08T19:53:05.887968
MEAN_MOTION    = 14.38979566
ECCENTRICITY   = .0001302
INCLINATION    = 98.3543
RA_OF_ASC_NODE = 264.4385
ARG_OF_PERICENTER = 83.5726
MEAN_ANOMALY   = 308.7645

EPHEMERIS_TYPE = 0
CLASSIFICATION_TYPE = U
NORAD_CAT_ID   = 27386
ELEMENT_SET_NO = 999
REV_AT_EPOCH   = 24179
BSTAR          = .88169E-4
MEAN_MOTION_DOT = .229E-5
MEAN_MOTION_DDOT = 0

CCSDS_OMM_VERS = 2.0
CREATION_DATE  = 
ORIGINATOR     = 

OBJECT_NAME    = IDEFIX & ARIANE 42P R/B
OBJECT_ID      = 2002-021B
CENTER_NAME    = EARTH
REF_FRAME      = TEME
TIME_SYSTEM    = UTC
MEAN_ELEMENT_THEORY = SGP/SGP4

EPOCH          = 2025-11-08T12:43:10.813728
MEAN_MOTION    = 14.30911204
ECCENTRICITY   = .0011628
INCLINATION    = 98.5734
RA_OF_ASC_NODE = 247.6746
ARG_OF_PERICENTER = 178.8290
MEAN_ANOMALY   = 181.2922

EPHEMERIS_TYPE = 0
CLASSIFICATION_TYPE = U
NORAD_CAT_ID   = 27422
ELEMENT_SET_NO = 999
REV_AT_EPOCH   = 22669
BSTAR          = .20789E-3
MEAN_MOTION_DOT = .503E-5
MEAN_MOTION_DDOT = 0

CCSDS_OMM_VERS = 2.0
CREATION_DATE  = 
ORIGINATOR     = 

OBJECT_NAME    = AQUA
OBJECT_ID      = 2002-022A
CENTER_NAME    = EARTH
REF_FRAME      = TEME
TIME_SYSTEM    = UTC
MEAN_ELEMENT_THEORY = SGP/SGP4

EPOCH          = 2025-11-08T20:48:11.206368
MEAN_MOTION    = 14.61683756
ECCENTRICITY   = .0000986
INCLINATION    = 98.3988
RA_OF_ASC_NODE = 273.2071
ARG_OF_PERICENTER = 51.3148
MEAN_ANOMALY   = 330.1970

EPHEMERIS_TYPE = 0
CLASSIFICATION_TYPE = U
NORAD_CAT_ID   = 27424
ELEMENT_SET_NO = 999
REV_AT_EPOCH   = 25108
BSTAR          = .4231E-3
MEAN_MOTION_DOT = .2058E-4
MEAN_MOTION_DDOT = 0

CCSDS_OMM_VERS = 2.0
CREATION_DATE  = 
ORIGINATOR     = 

OBJECT_NAME    = CZ-4B R/B
OBJECT_ID      = 2002-024C
CENTER_NAME    = EARTH
REF_FRAME      = TEME
TIME_SYSTEM    = UTC
MEAN_ELEMENT_THEORY = SGP/SGP4

EPOCH          = 2025-11-08T13:42:30.737376
MEAN_MOTION    = 14.14517103
ECCENTRICITY   = .0050249
INCLINATION    = 98.9053
RA_OF_ASC_NODE = 1.4534
ARG_OF_PERICENTER = 8.1663
MEAN_ANOMALY   = 153.3085

EPHEMERIS_TYPE = 0
CLASSIFICATION_TYPE = U
NORAD_CAT_ID   = 27432
ELEMENT_SET_NO = 999
REV_AT_EPOCH   = 21211
BSTAR          = .78167E-4
MEAN_MOTION_DOT = .107E-5
MEAN_MOTION_DDOT = 0

CCSDS_OMM_VERS = 2.0
CREATION_DATE  = 
ORIGINATOR     = 

OBJECT_NAME    = MIDORI II (ADEOS-II)
OBJECT_ID      = 2002-056A
CENTER_NAME    = EARTH
REF_FRAME      = TEME
TIME_SYSTEM    = UTC
MEAN_ELEMENT_THEORY = SGP/SGP4

EPOCH          = 2025-11-08T19:56:22.479072
MEAN_MOTION    = 14.29169484
ECCENTRICITY   = .0001498
INCLINATION    = 98.7582
RA_OF_ASC_NODE = 265.6192
ARG_OF_PERICENTER = 39.2285
MEAN_ANOMALY   = 320.9005

EPHEMERIS_TYPE = 0
CLASSIFICATION_TYPE = U
NORAD_CAT_ID   = 27597
ELEMENT_SET_NO = 999
REV_AT_EPOCH   = 19303
BSTAR          = .20949E-3
MEAN_MOTION_DOT = .487E-5
MEAN_MOTION_DDOT = 0

CCSDS_OMM_VERS = 2.0
CREATION_DATE  = 
ORIGINATOR     = 

OBJECT_NAME    = H-2A R/B
OBJECT_ID      = 2002-056E
CENTER_NAME    = EARTH
REF_FRAME      = TEME
TIME_SYSTEM    = UTC
MEAN_ELEMENT_THEORY = SGP/SGP4

EPOCH          = 2025-11-08T19:43:47.610048
MEAN_MOTION    = 14.33638508
ECCENTRICITY   = .0070609
INCLINATION    = 98.3013
RA_OF_ASC_NODE = 272.9394
ARG_OF_PERICENTER = 160.8474
MEAN_ANOMALY   = 211.4023

EPHEMERIS_TYPE = 0
CLASSIFICATION_TYPE = U
NORAD_CAT_ID   = 27601
ELEMENT_SET_NO = 999
REV_AT_EPOCH   = 19679
BSTAR          = .17077E-3
MEAN_MOTION_DOT = .445E-5
MEAN_MOTION_DDOT = 0

CCSDS_OMM_VERS = 2.0
CREATION_DATE  = 
ORIGINATOR     = 

OBJECT_NAME    = CZ-4B R/B
OBJECT_ID      = 2003-049C
CENTER_NAME    = EARTH
REF_FRAME      = TEME
TIME_SYSTEM    = UTC
MEAN_ELEMENT_THEORY = SGP/SGP4

EPOCH          = 2025-11-08T11:36:20.575008
MEAN_MOTION    = 14.54859887
ECCENTRICITY   = .0047197
INCLINATION    = 98.6764
RA_OF_ASC_NODE = 297.7579
ARG_OF_PERICENTER = 241.0192
MEAN_ANOMALY   = 118.6269

EPHEMERIS_TYPE = 0
CLASSIFICATION_TYPE = U
NORAD_CAT_ID   = 28059
ELEMENT_SET_NO = 999
REV_AT_EPOCH   = 16897
BSTAR          = .16278E-3
MEAN_MOTION_DOT = .657E-5
MEAN_MOTION_DDOT = 0

CCSDS_OMM_VERS = 2.0
CREATION_DATE  = 
ORIGINATOR     = 

OBJECT_NAME    = CZ-2C R/B
OBJECT_ID      = 2004-012C
CENTER_NAME    = EARTH
REF_FRAME      = TEME
TIME_SYSTEM    = UTC
MEAN_ELEMENT_THEORY = SGP/SGP4

EPOCH          = 2025-11-08T14:39:43.958016
MEAN_MOTION    = 15.52447105
ECCENTRICITY   = .0019757
INCLINATION    = 97.7479
RA_OF_ASC_NODE = 2.4862
ARG_OF_PERICENTER = 38.5413
MEAN_ANOMALY   = 321.7245

EPHEMERIS_TYPE = 0
CLASSIFICATION_TYPE = U
NORAD_CAT_ID   = 28222
ELEMENT_SET_NO = 999
REV_AT_EPOCH   = 18542
BSTAR          = .77504E-3
MEAN_MOTION_DOT = .47875E-3
MEAN_MOTION_DDOT = 0

CCSDS_OMM_VERS = 2.0
CREATION_DATE  = 
ORIGINATOR     = 

OBJECT_NAME    = SL-16 R/B
OBJECT_ID      = 2004-021B
CENTER_NAME    = EARTH
REF_FRAME      = TEME
TIME_SYSTEM    = UTC
MEAN_ELEMENT_THEORY = SGP/SGP4

EPOCH          = 2025-11-08T17:59:38.304096
MEAN_MOTION    = 14.14570128
ECCENTRICITY   = .0006757
INCLINATION    = 70.9968
RA_OF_ASC_NODE = 126.2923
ARG_OF_PERICENTER = 235.3583
MEAN_ANOMALY   = 124.6903

EPHEMERIS_TYPE = 0
CLASSIFICATION_TYPE = U
NORAD_CAT_ID   = 28353
ELEMENT_SET_NO = 999
REV_AT_EPOCH   = 10573
BSTAR          = .763E-4
MEAN_MOTION_DOT = .99E-6
MEAN_MOTION_DDOT = 0

CCSDS_OMM_VERS = 2.0
CREATION_DATE  = 
ORIGINATOR     = 

OBJECT_NAME    = CZ-4B R/B
OBJECT_ID      = 2004-035C
CENTER_NAME    = EARTH
REF_FRAME      = TEME
TIME_SYSTEM    = UTC
MEAN_ELEMENT_THEORY = SGP/SGP4

EPOCH          = 2025-11-08T13:13:16.437216
MEAN_MOTION    = 15.26570402
ECCENTRICITY   = .0035131
INCLINATION    = 97.3651
RA_OF_ASC_NODE = 343.3621
ARG_OF_PERICENTER = 40.4012
MEAN_ANOMALY   = 319.9826

EPHEMERIS_TYPE = 0
CLASSIFICATION_TYPE = U
NORAD_CAT_ID   = 28415
ELEMENT_SET_NO = 999
REV_AT_EPOCH   = 16141
BSTAR          = .50094E-3
MEAN_MOTION_DOT = .13277E-3
MEAN_MOTION_DDOT = 0

CCSDS_OMM_VERS = 2.0
CREATION_DATE  = 
ORIGINATOR     = 

OBJECT_NAME    = CZ-2C R/B
OBJECT_ID      = 2004-046B
CENTER_NAME    = EARTH
REF_FRAME      = TEME
TIME_SYSTEM    = UTC
MEAN_ELEMENT_THEORY = SGP/SGP4

EPOCH          = 2025-11-08T17:45:23.859072
MEAN_MOTION    = 14.26917494
ECCENTRICITY   = .0140047
INCLINATION    = 98.1956
RA_OF_ASC_NODE = 230.2370
ARG_OF_PERICENTER = 152.1032
MEAN_ANOMALY   = 208.7750

EPHEMERIS_TYPE = 0
CLASSIFICATION_TYPE = U
NORAD_CAT_ID   = 28480
ELEMENT_SET_NO = 999
REV_AT_EPOCH   = 9125
BSTAR          = .11642E-3
MEAN_MOTION_DOT = .273E-5
MEAN_MOTION_DDOT = 0

