TITAN 4B R/B            
1 26474U 00047B   25312.79723784  .00006771  00000+0  43342-3 0  9993
2 26474  67.9916  20.1579 0042285 184.1354 175.9452 15.08410704374674
ENVISAT                 
1 27386U 02009A   25312.82854037  .00000229  00000+0  88169-4 0  9995
2 27386  98.3543 264.4385 0001302  83.5726 308.7645 14.38979566241793
IDEFIX & ARIANE 42P R/B 
1 27422U 02021B   25312.52998627  .00000503  00000+0  20789-3 0  9999
2 27422  98.5734 247.6746 0011628 178.8290 181.2922 14.30911204226699
AQUA                    
1 27424U 02022A   25312.86679637  .00002058  00000+0  42310-3 0  9997
2 27424  98.3988 273.2071 0000986  51.3148 330.1970 14.61683756251089
CZ-4B R/B               
1 27432U 02024C   25312.57118909  .00000107  00000+0  78167-4 0  9999
2 27432  98.9053   1.4534 0050249   8.1663 153.3085 14.14517103212114
MIDORI II (ADEOS-II)    
1 27597U 02056A   25312.83081573  .00000487  00000+0  20949-3 0  9996
2 27597  98.7582 265.6192 0001498  39.2285 320.9005 14.29169484193036
H-2A R/B                
1 27601U 02056E   25312.82207882  .00000445  00000+0  17077-3 0  9996
2 27601  98.3013 272.9394 0070609 160.8474 211.4023 14.33638508196796
CZ-4B R/B               
1 28059U 03049C   25312.48357147  .00000657  00000+0  16278-3 0  9996
2 28059  98.6764 297.7579 0047197 241.0192 118.6269 14.54859887168972
CZ-2C R/B               
1 28222U 04012C   25312.61092544  .00047875  00000+0  77504-3 0  9993
2 28222  97.7479   2.4862 0019757  38.5413 321.7245 15.52447105185424
SL-16 R/B               
1 28353U 04021B   25312.74974889  .00000099  00000+0  76300-4 0  9994
2 28353  70.9968 126.2923 0006757 235.3583 124.6903 14.14570128105735
CZ-4B R/B               
1 28415U 04035C   25312.55088469  .00013277  00000+0  50094-3 0  9990
2 28415  97.3651 343.3621 0035131  40.4012 319.9826 15.26570402161412
CZ-2C R/B               
1 28480U 04046B   25312.73985948  .00000273  00000+0  11642-3 0  9990
2 28480  98.1956 230.2370 0140047 152.1032 208.7750 14.26917494 91252
